CCSDS_OMM_VERS,COMMENT,CREATION_DATE,ORIGINATOR,OBJECT_NAME,OBJECT_ID,CENTER_NAME,REF_FRAME,TIME_SYSTEM,MEAN_ELEMENT_THEORY,EPOCH,MEAN_MOTION,ECCENTRICITY,INCLINATION,RA_OF_ASC_NODE,ARG_OF_PERICENTER,MEAN_ANOMALY,EPHEMERIS_TYPE,CLASSIFICATION_TYPE,NORAD_CAT_ID,ELEMENT_SET_NO,REV_AT_EPOCH,BSTAR,MEAN_MOTION_DOT,MEAN_MOTION_DDOT,SEMIMAJOR_AXIS,PERIOD,APOAPSIS,PERIAPSIS,OBJECT_TYPE,RCS_SIZE,COUNTRY_CODE,LAUNCH_DATE,SITE,DECAY_DATE,DECAYED,FILE,GP_ID,TLE_LINE0,TLE_LINE1,TLE_LINE2,height_km,latitude,longitude,velocity_kms,id
2.0,GENERATED VIA SPACE-TRACK.ORG API,2022-11-30T03:22:20,18 SPCS,STARLINK-1316,2020-019BH,EARTH,TEME,UTC,SGP4,2022-11-29T18:49:34.974912,15.06404619,0.0001451,53.0542,105.2545,87.0358,273.0797,0,U,45415,999,14963,-3.5177e-05,-8.05e-06,0.0,6925.334,95.592,548.204,546.195,PAYLOAD,LARGE,US,2020-03-18,AFETR,,0,3673849,219109054,0 STARLINK-1316,1 45415U 20019BH  22333.78443258 -.00000805  00000-0 -35177-4 0  9997,2 45415  53.0542 105.2545 0001451  87.0358 273.0797 15.06404619149638,552.061725099893,49.94832467712036,-115.30029535290409,7.592371513250592,5eed7715096e590006985794
2.0,GENERATED VIA SPACE-TRACK.ORG API,2022-11-30T06:56:14,18 SPCS,STARLINK-1371,2020-025M,EARTH,TEME,UTC,SGP4,2022-11-29T14:33:28.963872,15.06393414,0.0001445,53.0556,76.0533,81.1619,278.9533,0,U,45542,999,14422,0.00012655,1.604e-05,0.0,6925.369,95.593,548.234,546.233,PAYLOAD,LARGE,US,2020-04-22,AFETR,,0,3674061,219119456,0 STARLINK-1371,1 45542U 20025M   22333.60658523  .00001604  00000-0  12655-3 0  9990,2 45542  53.0556  76.0533 0001445  81.1619 278.9533 15.06393414144226,566.2657380077908,-52.07059470929085,21.67759134763823,7.577291599197955,5eed7715096e590006985795
2.0,GENERATED VIA SPACE-TRACK.ORG API,2022-11-30T17:18:05,18 SPCS,STARLINK-1338,2020-025B,EARTH,TEME,UTC,SGP4,2022-11-29T14:22:51.661056,15.06386942,0.0001396,53.0557,76.0922,88.4681,271.6467,0,U,45532,999,14481,6.8001e-05,7.31e-06,0.0,6925.389,95.593,548.22,546.287,PAYLOAD,LARGE,US,2020-04-22,AFETR,,0,3675646,219172880,0 STARLINK-1338,1 45532U 20025B   22333.59920904  .00000731  00000-0  68001-4 0  9999,2 45532  53.0557  76.0922 0001396  88.4681 271.6467 15.06386942144811,547.7554753214163,25.177031460469895,118.130600119542,7.591864376590916,5eed7715096e590006985796
2.0,GENERATED VIA SPACE-TRACK.ORG API,2022-11-30T14:26:13,18 SPCS,STARLINK-1373,2020-025P,EARTH,TEME,UTC,SGP4,2022-11-30T07:48:29.994624,15.06387971,0.0001192,53.0557,72.8267,86.5349,273.5777,0,U,45544,999,14432,6.3718e-05,6.68e-06,0.0,6925.385,95.593,548.076,546.425,PAYLOAD,LARGE,US,2020-04-22,AFETR,,0,3674901,219134889,0 STARLINK-1373,1 45544U 20025P   22334.32534716  .00000668  00000-0  63718-4 0  9995,2 45544  53.0557  72.8267 0001192  86.5349 273.5777 15.06387971144328,549.0259098171746,-4.983798601171702,-63.498414905017476,7.588227791077674,5eed7715096e590006985797
2.0,GENERATED VIA SPACE-TRACK.ORG API,2022-11-30T17:18:05,18 SPCS,STARLINK-1378,2020-025T,EARTH,TEME,UTC,SGP4,2022-11-30T13:49:26.090688,15.06385947,0.0001613,53.0559,71.6929,72.1061,288.0104,0,U,45548,999,14495,-2.1825e-06,-3.14e-06,0.0,6925.392,95.593,548.374,546.14,PAYLOAD,LARGE,US,2020-04-22,AFETR,,0,3675646,219171884,0 STARLINK-1378,1 45548U 20025T   22334.57599642 -.00000314  00000-0 -21825-5 0  9999,2 45548  53.0559  71.6929 0001613  72.1061 288.0104 15.06385947144951,549.5638342614347,36.522529402667246,-116.09953892107109,7.592132321529483,5eed7715096e590006985798
2.0,GENERATED VIA SPACE-TRACK.ORG API,2022-11-30T03:22:20,18 SPCS,STARLINK-1482,2020-038AV,EARTH,TEME,UTC,SGP4,2022-11-29T16:23:38.200992,15.06390899,0.0001834,53.0533,165.7057,63.4265,296.6911,0,U,45773,999,13649,-2.7894e-06,-3.23e-06,0.0,6925.376,95.593,548.512,545.971,PAYLOAD,LARGE,US,2020-06-13,AFETR,,0,3673849,219107588,0 STARLINK-1482,1 45773U 20038AV  22333.68308103 -.00000323  00000-0 -27894-5 0  9996,2 45773  53.0533 165.7057 0001834  63.4265 296.6911 15.06390899136497,553.5418454710243,-19.459427216953614,53.347298516835394,7.5846140658321115,5eed7715096e590006985799
2.0,GENERATED VIA SPACE-TRACK.ORG API,2022-11-30T17:18:05,18 SPCS,STARLINK-1372,2020-025N,EARTH,TEME,UTC,SGP4,2022-11-30T13:44:06.850464,15.06394886,0.0001502,53.0559,71.7138,75.8216,284.2939,0,U,45543,999,14405,1.5907e-05,-4.5e-07,0.0,6925.364,95.592,548.269,546.189,PAYLOAD,LARGE,US,2020-04-22,AFETR,,0,3675646,219171633,0 STARLINK-1372,1 45543U 20025N   22334.57230151 -.00000045  00000-0  15907-4 0  9994,2 45543  53.0559  71.7138 0001502  75.8216 284.2939 15.06394886144055,547.6112863873777,22.013499059471282,-100.06238700249466,7.5914886277011915,5eed7715096e59000698579a
2.0,GENERATED VIA SPACE-TRACK.ORG API,2022-11-30T14:26:13,18 SPCS,STARLINK-1369,2020-025L,EARTH,TEME,UTC,SGP4,2022-11-30T07:16:39.643968,15.06388725,0.000141,53.0563,72.9244,77.0979,283.0167,0,U,45541,999,14433,1.1274e-05,-1.14e-06,0.0,6925.383,95.593,548.225,546.272,PAYLOAD,LARGE,US,2020-04-22,AFETR,,0,3674884,219134620,0 STARLINK-1369,1 45541U 20025L   22334.30323662 -.00000114  00000-0  11274-4 0  9993,2 45541  53.0563  72.9244 0001410  77.0979 283.0167 15.06388725144333,561.2373628271889,-40.45265168649661,73.1399722860048,7.580202209392036,5eed7715096e59000698579b
2.0,GENERATED VIA SPACE-TRACK.ORG API,2022-11-30T17:18:05,18 SPCS,STARLINK-1325,2020-025Z,EARTH,TEME,UTC,SGP4,2022-11-30T06:24:52.182432,15.06388633,0.0001738,53.059,53.0751,67.7755,292.3418,0,U,45554,999,14519,9.6117e-05,1.15e-05,0.0,6925.383,95.593,548.452,546.045,PAYLOAD,LARGE,US,2020-04-22,AFETR,,0,3675646,219171385,0 STARLINK-1325,1 45554U 20025Z   22334.26727063  .00001150  00000-0  96117-4 0  9994,2 45554  53.0590  53.0751 0001738  67.7755 292.3418 15.06388633145196,546.9987358296667,5.677676804892495,81.79357757881034,7.590476387657062,5eed7715096e59000698579c
2.0,GENERATED VIA SPACE-TRACK.ORG API,2022-09-11T17:16:11,18 SPCS,STARLINK-1339,2020-025C,EARTH,TEME,UTC,SGP4,2022-09-11T16:42:24.895872,16.36185557,0.0008111,53.0245,344.2717,328.9087,181.5764,0,U,45533,999,13353,0.0027679,0.24681771,1.2376e-05,6554.106,88.01,181.287,170.655,PAYLOAD,LARGE,US,2020-04-22,AFETR,2022-09-11,1,3568899,212298435,0 STARLINK-1339,1 45533U 20025C   22254.69612148  .24681771  12376-4  27679-2 0  9993,2 45533  53.0245 344.2717 0008111 328.9087 181.5764 16.36185557133531,,,,,5eed7715096e59000698579d
2.0,GENERATED VIA SPACE-TRACK.ORG API,2022-08-15T03:46:17,18 SPCS,STARLINK-1367,2020-025J,EARTH,TEME,UTC,SGP4,2022-08-15T03:02:26.352960,16.41341338,0.0008427,53.0199,317.0181,7.3679,67.7368,0,U,45539,999,13145,0.0016009,0.26429626,1.2541e-05,6540.374,87.733,167.75,156.727,PAYLOAD,LARGE,US,2020-04-22,AFETR,2022-08-15,1,3536616,210235808,0 STARLINK-1367,1 45539U 20025J   22227.12669390  .26429626  12541-4  16009-2 0  9998,2 45539  53.0199 317.0181 0008427   7.3679  67.7368 16.41341338131454,,,,,5eed7715096e59000698579e
2.0,GENERATED VIA SPACE-TRACK.ORG API,2022-11-30T17:18:05,18 SPCS,STARLINK-1368,2020-025K,EARTH,TEME,UTC,SGP4,2022-11-30T13:33:29.902752,15.06397936,0.0001517,53.0555,71.7535,76.5531,283.5627,0,U,45540,999,14495,1.678e-05,-3.2e-07,0.0,6925.355,95.592,548.27,546.169,PAYLOAD,LARGE,US,2020-04-22,AFETR,,0,3675646,219171883,0 STARLINK-1368,1 45540U 20025K   22334.56492943 -.00000032  00000-0  16780-4 0  9995,2 45540  53.0555  71.7535 0001517  76.5531 283.5627 15.06397936144957,550.3215937005298,-9.7816881842065,-75.04688665075066,7.587067959761463,5eed7715096e59000698579f
2.0,GENERATED VIA SPACE-TRACK.ORG API,2022-11-30T14:46:14,18 SPCS,STARLINK-1485,2020-038AW,EARTH,TEME,UTC,SGP4,2022-11-30T06:01:01.789824,15.0637631,0.0001656,53.0539,163.1645,65.2589,294.8572,0,U,45774,999,13769,0.00014201,1.833e-05,0.0,6925.421,95.594,548.433,546.139,PAYLOAD,LARGE,US,2020-06-13,AFETR,,0,3675026,219138653,0 STARLINK-1485,1 45774U 20038AW  22334.25071516  .00001833  00000-0  14201-3 0  9997,2 45774  53.0539 163.1645 0001656  65.2589 294.8572 15.06376310137698,560.9671947766665,-38.629478090070904,59.471055246545035,7.580111534754827,5eed7715096e5900069857a0
2.0,GENERATED VIA SPACE-TRACK.ORG API,2022-11-30T14:26:13,18 SPCS,STARLINK-1353,2020-025G,EARTH,TEME,UTC,SGP4,2022-11-30T08:26:50.108640,15.39380071,0.0005769,52.9736,358.5595,24.8013,335.3265,0,U,45537,999,14533,0.0018235,0.00072702,0.0,6826.078,93.544,451.881,444.005,PAYLOAD,LARGE,US,2020-04-22,AFETR,,0,3674883,219135027,0 STARLINK-1353,1 45537U 20025G   22334.35196885  .00072702  00000-0  18235-2 0  9991,2 45537  52.9736 358.5595 0005769  24.8013 335.3265 15.39380071145333,451.97490732280494,52.413412379711374,115.5619712761776,7.648815543001337,5eed7715096e5900069857a1
2.0,GENERATED VIA SPACE-TRACK.ORG API,2022-11-30T17:18:05,18 SPCS,STARLINK-1294,2020-025W,EARTH,TEME,UTC,SGP4,2022-11-29T23:58:45.441984,15.06393553,0.0001452,53.0565,54.298,77.2791,282.8361,0,U,45551,999,14515,1.2847e-05,-9e-07,0.0,6925.368,95.593,548.239,546.228,PAYLOAD,LARGE,US,2020-04-22,AFETR,,0,3675646,219172882,0 STARLINK-1294,1 45551U 20025W   22333.99913706 -.00000090  00000-0  12847-4 0  9992,2 45551  53.0565  54.2980 0001452  77.2791 282.8361 15.06393553145155,546.9725541776679,17.506106738481527,91.19301479082226,7.591543108313174,5eed7715096e5900069857a2
2.0,GENERATED VIA SPACE-TRACK.ORG API,2022-11-30T06:26:14,18 SPCS,STARLINK-1327,2020-025AA,EARTH,TEME,UTC,SGP4,2022-11-29T12:02:12.834816,15.06396263,0.0001428,53.0563,56.5274,87.055,273.0603,0,U,45555,999,14447,0.00018108,2.416e-05,0.0,6925.36,95.592,548.214,546.236,PAYLOAD,LARGE,US,2020-04-22,AFETR,,0,3673880,219115425,0 STARLINK-1327,1 45555U 20025AA  22333.50153744  .00002416  00000-0  18108-3 0  9999,2 45555  53.0563  56.5274 0001428  87.0550 273.0603 15.06396263144479,547.0537678194141,14.318963682806874,149.44313803887073,7.591060948581164,5eed7715096e5900069857a3
